NORAD_CAT_ID,OBJECT_NAME,OBJECT_TYPE,EPOCH,MEAN_MOTION,ECCENTRICITY,INCLINATION,RA_OF_ASC_NODE,ARG_OF_PERICENTER,MEAN_ANOMALY,BSTAR,MEAN_MOTION_DOT,MEAN_MOTION_DDOT,TLE_LINE0,TLE_LINE1,TLE_LINE2,SEMIMAJOR_AXIS,PERIOD,APOGEE,PERIGEE,DECAYED
52341.0,STARLINK-3843,PAYLOAD,2023-06-26 15:33:40,15.08834664,0.000118,53.2186,320.0734,85.2642,274.8485,2.8454e-05,1.65e-06,0.0,0 STARLINK-3843,1 52341U 22045L   23177.64838174  .00000165  00000-0  28454-4 0  9998,2 52341  53.2186 320.0734 0001180  85.2642 274.8485 15.08834664 66632,6917.897,95.438,540.578,538.945,0.0
52341.0,STARLINK-3843,PAYLOAD,2023-06-27 15:24:26,15.0884252,0.0001089,53.218,315.6132,83.1072,277.0044,9.1211e-05,1.164e-05,0.0,0 STARLINK-3843,1 52341U 22045L   23178.64197618  .00001164  00000-0  91211-4 0  9991,2 52341  53.2180 315.6132 0001089  83.1072 277.0044 15.08842520 66782,6917.873,95.437,540.491,538.984,0.0
52341.0,STARLINK-3843,PAYLOAD,2023-06-28 08:53:41,15.08829511,0.0001062,53.2181,312.3422,80.3484,279.7628,0.00018147,2.601e-05,0.0,0 STARLINK-3843,1 52341U 22045L   23179.37062171  .00002601  00000-0  18147-3 0  9990,2 52341  53.2181 312.3422 0001062  80.3484 279.7628 15.08829511 66890,6917.912,95.438,540.512,539.043,0.0
52341.0,STARLINK-3843,PAYLOAD,2023-06-28 20:01:22,15.08845073,0.0001031,53.2178,310.2611,63.0065,297.1032,0.00014789,2.067e-05,0.0,0 STARLINK-3843,1 52341U 22045L   23179.83429307  .00002067  00000-0  14789-3 0  9993,2 52341  53.2178 310.2611 0001031  63.0065 297.1032 15.08845073 66964,6917.865,95.437,540.443,539.017,0.0
52341.0,STARLINK-3843,PAYLOAD,2023-06-29 08:44:28,15.08838096,0.0001041,53.2172,307.8815,85.6883,274.4229,2.8753e-05,1.7e-06,0.0,0 STARLINK-3843,1 52341U 22045L   23180.36422020  .00000170  00000-0  28753-4 0  9998,2 52341  53.2172 307.8815 0001041  85.6883 274.4229 15.08838096 67048,6917.886,95.438,540.471,539.031,0.0
52341.0,STARLINK-3843,PAYLOAD,2023-06-29 16:41:23,15.08844889,0.0001008,53.2189,306.3946,88.9494,271.1614,7.3513e-05,8.83e-06,0.0,0 STARLINK-3843,1 52341U 22045L   23180.69541444  .00000883  00000-0  73513-4 0  9991,2 52341  53.2189 306.3946 0001008  88.9494 271.1614 15.08844889 67096,6917.865,95.437,540.428,539.033,0.0
52341.0,STARLINK-3843,PAYLOAD,2023-07-01 00:29:07,15.08833895,0.0001368,53.2189,300.4478,73.2698,286.8444,-5.9623e-05,-1.237e-05,0.0,0 STARLINK-3843,1 52341U 22045L   23182.02022351 -.00001237  00000-0 -59623-4 0  9993,2 52341  53.2189 300.4478 0001368  73.2698 286.8444 15.08833895 67294,6917.899,95.438,540.71,538.818,0.0
52341.0,STARLINK-3843,PAYLOAD,2023-07-02 14:38:22,15.08839688,8.96e-05,53.2182,293.3109,88.9765,271.1329,3.9753e-05,3.45e-06,0.0,0 STARLINK-3843,1 52341U 22045L   23183.60998086  .00000345  00000-0  39753-4 0  9994,2 52341  53.2182 293.3109 0000896  88.9765 271.1329 15.08839688 67533,6917.881,95.438,540.366,539.127,0.0
52341.0,STARLINK-3843,PAYLOAD,2023-07-03 16:04:32,15.08844635,9.12e-05,53.2184,288.5524,84.4051,275.7045,0.00015327,2.153e-05,0.0,0 STARLINK-3843,1 52341U 22045L   23184.66981696  .00002153  00000-0  15327-3 0  9999,2 52341  53.2184 288.5524 0000912  84.4051 275.7045 15.08844635 67690,6917.866,95.437,540.362,539.1,0.0
52341.0,STARLINK-3843,PAYLOAD,2023-07-04 11:09:10,15.08837078,4.51e-05,53.2174,284.9857,62.0939,298.0099,8.4124e-05,1.051e-05,0.0,0 STARLINK-3843,1 52341U 22045L   23185.46470478  .00001051  00000-0  84124-4 0  9997,2 52341  53.2174 284.9857 0000451  62.0939 298.0099 15.08837078 67817,6917.889,95.438,540.066,539.442,0.0
52341.0,STARLINK-3843,PAYLOAD,2023-07-04 15:55:19,15.08846037,8.71e-05,53.2183,284.0914,94.1487,265.9605,6.0482e-05,6.75e-06,0.0,0 STARLINK-3843,1 52341U 22045L   23185.66341938  .00000675  00000-0  60482-4 0  9999,2 52341  53.2183 284.0914 0000871  94.1487 265.9605 15.08846037 67846,6917.862,95.437,540.329,539.124,0.0
52341.0,STARLINK-3843,PAYLOAD,2023-07-04 23:52:15,15.08839074,0.0001054,53.2181,282.605,90.6749,269.4364,-1.1834e-07,-2.9e-06,0.0,0 STARLINK-3843,1 52341U 22045L   23185.99462558 -.00000290  00000-0 -11834-6 0  9991,2 52341  53.2181 282.6050 0001054  90.6749 269.4364 15.08839074 67894,6917.883,95.438,540.477,539.019,0.0
52341.0,STARLINK-3843,PAYLOAD,2023-07-06 06:04:35,15.08835884,7.88e-05,53.2178,276.9554,91.6619,268.4463,0.00014707,2.053e-05,0.0,0 STARLINK-3843,1 52341U 22045L   23187.25318486  .00002053  00000-0  14707-3 0  9998,2 52341  53.2178 276.9554 0000788  91.6619 268.4463 15.08835884 68081,6917.893,95.438,540.303,539.213,0.0
52341.0,STARLINK-3843,PAYLOAD,2023-07-06 12:26:06,15.08858516,7.81e-05,53.2173,275.7669,86.9214,273.1868,-0.00010158,-1.905e-05,0.0,0 STARLINK-3843,1 52341U 22045L   23187.51813621 -.00001905  00000-0 -10158-3 0  9991,2 52341  53.2173 275.7669 0000781  86.9214 273.1868 15.08858516 68125,6917.824,95.436,540.229,539.149,0.0
52341.0,STARLINK-3843,PAYLOAD,2023-07-07 10:41:31,15.08843059,9.15e-05,53.2173,271.6037,84.2106,275.899,0.00011615,1.561e-05,0.0,0 STARLINK-3843,1 52341U 22045L   23188.44550179  .00001561  00000-0  11615-3 0  9995,2 52341  53.2173 271.6037 0000915  84.2106 275.8990 15.08843059 68265,6917.871,95.437,540.369,539.103,0.0
52341.0,STARLINK-3843,PAYLOAD,2023-07-08 16:53:50,15.08844091,9.07e-05,53.2176,265.9542,91.38,268.7296,3.6786e-05,2.98e-06,0.0,0 STARLINK-3843,1 52341U 22045L   23189.70406134  .00000298  00000-0  36786-4 0  9999,2 52341  53.2176 265.9542 0000907  91.3800 268.7296 15.08844091 68454,6917.868,95.437,540.36,539.105,0.0
52341.0,STARLINK-3843,PAYLOAD,2023-07-09 04:01:33,15.08832225,0.000115,53.2176,263.8719,96.4508,263.6615,-2.0719e-05,-6.17e-06,0.0,0 STARLINK-3843,1 52341U 22045L   23190.16775164 -.00000617  00000-0 -20719-4 0  9999,2 52341  53.2176 263.8719 0001150  96.4508 263.6615 15.08832225 68522,6917.904,95.438,540.565,538.974,0.0
52341.0,STARLINK-3843,PAYLOAD,2023-07-10 03:52:20,15.08836293,8.93e-05,53.2173,259.4122,93.5575,266.5519,7.5435e-05,9.13e-06,0.0,0 STARLINK-3843,1 52341U 22045L   23191.16134893  .00000913  00000-0  75435-4 0  9990,2 52341  53.2173 259.4122 0000893  93.5575 266.5519 15.08836293 68673,6917.892,95.438,540.374,539.139,0.0
52341.0,STARLINK-3843,PAYLOAD,2023-07-11 16:26:12,15.08842568,8.88e-05,53.2165,252.573,88.1384,271.971,0.00014263,1.983e-05,0.0,0 STARLINK-3843,1 52341U 22045L   23192.68486565  .00001983  00000-0  14263-3 0  9993,2 52341  53.2165 252.5730 0000888  88.1384 271.9710 15.08842568 68906,6917.873,95.437,540.352,539.123,0.0
52341.0,STARLINK-3843,PAYLOAD,2023-07-13 12:57:00,15.08842297,9.95e-05,53.2165,244.246,87.6594,272.4512,5.0476e-05,5.16e-06,0.0,0 STARLINK-3843,1 52341U 22045L   23194.53958793  .00000516  00000-0  50476-4 0  9994,2 52341  53.2165 244.2460 0000995  87.6594 272.4512 15.08842297 69186,6917.873,95.437,540.427,539.05,0.0
52341.0,STARLINK-3843,PAYLOAD,2023-07-14 09:37:01,15.08838536,9.79e-05,53.2164,240.3798,97.7876,262.3228,6.2067e-05,7e-06,0.0,0 STARLINK-3843,1 52341U 22045L   23195.40070956  .00000700  00000-0  62067-4 0  9991,2 52341  53.2164 240.3798 0000979  97.7876 262.3228 15.08838536 69311,6917.885,95.438,540.427,539.073,0.0
52341.0,STARLINK-3843,PAYLOAD,2023-07-16 09:18:36,15.08833455,0.0001031,53.2168,231.4599,95.4413,264.6697,2.2473e-06,-2.52e-06,0.0,0 STARLINK-3843,1 52341U 22045L   23197.38791704 -.00000252  00000-0  22473-5 0  9992,2 52341  53.2168 231.4599 0001031  95.4413 264.6697 15.08833455 69610,6917.9,95.438,540.479,539.052,0.0
52341.0,STARLINK-3843,PAYLOAD,2023-07-17 18:41:41,15.08839297,9.48e-05,53.2166,225.2149,94.8498,265.2602,3.5043e-05,2.7e-06,0.0,0 STARLINK-3843,1 52341U 22045L   23198.77895614  .00000270  00000-0  35043-4 0  9996,2 52341  53.2166 225.2149 0000948  94.8498 265.2602 15.08839297 69828,6917.883,95.438,540.403,539.092,0.0
52341.0,STARLINK-3843,PAYLOAD,2023-07-18 02:38:37,15.08818155,9.03e-05,53.2163,223.728,94.848,265.2615,0.00036536,5.528e-05,0.0,0 STARLINK-3843,1 52341U 22045L   23199.11015947  .00005528  00000-0  36536-3 0  9996,2 52341  53.2163 223.7280 0000903  94.8480 265.2615 15.08818155 69875,6917.947,95.439,540.437,539.187,0.0
52341.0,STARLINK-3843,PAYLOAD,2023-07-18 09:00:09,15.0884052,9.31e-05,53.2164,222.5385,91.8054,268.3045,0.00013555,1.87e-05,0.0,0 STARLINK-3843,1 52341U 22045L   23199.37511452  .00001870  00000-0  13555-3 0  9998,2 52341  53.2164 222.5385 0000931  91.8054 268.3045 15.08840520 69911,6917.879,95.438,540.388,539.1,0.0
52341.0,STARLINK-3843,PAYLOAD,2023-07-19 02:29:24,15.08829579,8.89e-05,53.2164,219.2672,91.1636,268.9458,0.00017796,2.545e-05,0.0,0 STARLINK-3843,1 52341U 22045L   23200.10376150  .00002545  00000-0  17796-3 0  9997,2 52341  53.2164 219.2672 0000889  91.1636 268.9458 15.08829579 70023,6917.912,95.438,540.392,539.162,0.0
52341.0,STARLINK-3843,PAYLOAD,2023-07-19 08:50:57,15.08839445,9.19e-05,53.2165,218.0778,92.2028,267.9069,6.6446e-05,7.7e-06,0.0,0 STARLINK-3843,1 52341U 22045L   23200.36871856  .00000770  00000-0  66446-4 0  9993,2 52341  53.2165 218.0778 0000919  92.2028 267.9069 15.08839445 70063,6917.882,95.438,540.383,539.111,0.0
52341.0,STARLINK-3843,PAYLOAD,2023-07-21 00:35:35,15.08840814,9.63e-05,53.2166,210.6436,84.8434,275.2668,7.6679e-05,9.33e-06,0.0,0 STARLINK-3843,1 52341U 22045L   23202.02471881  .00000933  00000-0  76679-4 0  9992,2 52341  53.2166 210.6436 0000963  84.8434 275.2668 15.08840814 70317,6917.878,95.438,540.409,539.077,0.0
52341.0,STARLINK-3843,PAYLOAD,2023-07-24 00:07:57,15.08837283,0.0001043,53.2169,197.2624,98.175,261.936,2.3167e-05,8.1e-07,0.0,0 STARLINK-3843,1 52341U 22045L   23205.00552180  .00000081  00000-0  23167-4 0  9993,2 52341  53.2169 197.2624 0001043  98.1750 261.9360 15.08837283 70764,6917.889,95.438,540.475,539.032,0.0
52341.0,STARLINK-3843,PAYLOAD,2023-07-25 07:55:39,15.08838145,0.0001076,53.2167,191.3171,90.1344,269.9771,4.5542e-05,4.37e-06,0.0,0 STARLINK-3843,1 52341U 22045L   23206.33032370  .00000437  00000-0  45542-4 0  9990,2 52341  53.2167 191.3171 0001076  90.1344 269.9771 15.08838145 70965,6917.886,95.438,540.495,539.007,0.0
